OBJECT_NAME,OBJECT_ID,EPOCH,MEAN_MOTION,ECCENTRICITY,INCLINATION,RA_OF_ASC_NODE,ARG_OF_PERICENTER,MEAN_ANOMALY,EPHEMERIS_TYPE,CLASSIFICATION_TYPE,NORAD_CAT_ID,ELEMENT_SET_NO,REV_AT_EPOCH,BSTAR,MEAN_MOTION_DOT,MEAN_MOTION_DDOT
BEIDOU-3S IGSO-1S (C31),2015-019A,2026-06-26T16:41:18.216672,1.00249401,.0039049,49.1760,295.3462,191.6970,128.6573,0,U,40549,999,4116,0,-.17E-5,0
GPS BIIF-10 (PRN 08),2015-033A,2026-06-26T16:39:54.306720,2.00555882,.0115145,53.9750,266.6943,30.2371,330.4696,0,U,40730,999,8018,0,-.31E-6,0
BEIDOU-3S M2S (C58),2015-037A,2026-06-25T21:56:56.733792,1.86232105,.000858,54.8627,301.7450,258.5842,101.3122,0,U,40748,999,7428,0,-.104E-5,0
BEIDOU-3S M1S (C57),2015-037B,2026-06-26T02:54:03.290688,1.86255003,.0003237,54.8590,301.7263,62.2861,297.7397,0,U,40749,999,7429,0,-.103E-5,0
GSAT0206 (GALILEO 10),2015-045B,2026-06-24T11:54:39.024000,1.70473861,.00016854,54.9433,221.4024,336.0482,24.0274,0,U,40890,999,6716,0,.51E-6,0
BEIDOU-3S IGSO-2S (C56),2015-053A,2026-06-26T16:25:46.582752,1.00257789,.00655228,49.2053,258.6677,192.9538,164.2588,0,U,40938,999,3944,0,-.116E-5,0
GPS BIIF-11 (PRN 10),2015-062A,2026-06-26T18:00:06.016032,2.00567519,.01121888,56.9659,30.4428,230.9710,128.0791,0,U,41019,999,7802,0,-.8E-6,0
GSAT-15 (GAGAN/PRN 139),2015-065A,2026-06-27T11:14:21.966720,1.00270896,.0004603,0.0482,263.4087,173.8537,100.4260,0,U,41028,999,3890,0,-.246E-5,0
GSAT0209 (GALILEO 12),2015-079A,2026-06-25T06:01:25.527360,1.70473764,.00050472,55.8320,101.0407,349.0522,10.9102,0,U,41174,999,6491,0,-.38E-6,0
GSAT0208 (GALILEO 11),2015-079B,2026-06-26T01:23:22.771680,1.70473681,.0004595,55.8311,101.0154,354.0123,5.9555,0,U,41175,999,6534,0,-.39E-6,0
IRNSS-1E,2016-003A,2026-06-25T14:21:38.812032,1.00274592,.00190622,33.2517,59.6282,179.1130,2.2203,0,U,41241,999,3816,0,-.319E-5,0
GPS BIIF-12 (PRN 32),2016-007A,2026-06-26T08:14:02.457600,2.00551441,.0095637,55.5293,89.0967,247.1706,111.8201,0,U,41328,999,7602,0,-.66E-6,0
COSMOS 2514 (751),2016-008A,2026-06-26T16:05:19.123872,2.13102793,.00116423,65.0155,312.6811,199.0103,160.9356,0,U,41330,999,8082,0,-.84E-6,0
BEIDOU-2 IGSO-6 (C13),2016-021A,2026-06-26T02:38:38.671584,1.00258926,.0057558,60.2385,37.9495,231.0163,137.2672,0,U,41434,999,3757,0,-.145E-5,0
IRNSS-1G,2016-027A,2026-06-27T11:13:34.234176,1.00282460,.0005811,5.2201,97.2368,4.5579,111.5347,0,U,41469,999,3728,0,-.327E-5,0
GSAT0211 (GALILEO 14),2016-030A,2026-06-27T08:31:06.738240,1.70474008,.0003113,55.0928,221.4150,320.4924,39.5806,0,U,41549,999,6284,0,.67E-6,0
GSAT0210 (GALILEO 13),2016-030B,2026-06-25T06:22:49.933344,1.70473937,.0008659,55.0912,221.4705,257.5264,102.4641,0,U,41550,999,6280,0,.56E-6,0
BEIDOU-2 G7 (C03),2016-037A,2026-06-27T13:29:38.640192,1.00272110,.0006856,1.7458,69.4145,1.6985,157.5247,0,U,41586,999,699,0,-.343E-5,0
EUTELSAT 117 WEST B (WAAS/PRN 131),2016-038B,2026-06-27T11:57:02.537856,1.00271818,.0000293,0.0081,151.6791,94.4443,91.7661,0,U,41589,999,3676,0,0,0
GSAT0207 (GALILEO 15),2016-069A,2026-06-26T17:13:02.065728,1.70473700,.00050068,55.5042,100.8225,333.0982,26.8500,0,U,41859,999,5956,0,-.38E-6,0
GSAT0212 (GALILEO 16),2016-069B,2026-06-27T03:46:41.184768,1.70473636,.0004388,55.5020,100.8054,12.7020,347.2841,0,U,41860,999,5982,0,-.37E-6,0
GSAT0213 (GALILEO 17),2016-069C,2026-06-25T04:16:41.547360,1.70474298,.00046296,55.5032,100.8681,315.3374,44.5989,0,U,41861,999,5965,0,-.39E-6,0
GSAT0214 (GALILEO 18),2016-069D,2026-06-21T19:19:10.755840,1.70473560,.00038497,55.5000,100.9540,321.2487,38.7039,0,U,41862,999,5972,0,-.23E-6,0
SES-15 (WAAS/PRN 133),2017-026A,2026-06-27T10:10:56.932320,1.00273031,.0001081,0.0203,333.7086,157.7213,167.6801,0,U,42709,999,753,0,.71E-6,0
QZS-2 (QZSS/PRN 194),2017-028A,2026-06-27T11:52:38.451936,1.00281278,.0758985,39.4116,243.0027,269.3731,83.4413,0,U,42738,999,773,0,-.13E-5,0
QZS-3 (QZSS/PRN 199),2017-048A,2026-06-27T13:21:38.683008,1.00271709,.0002299,0.0691,146.6373,306.4781,150.0087,0,U,42917,999,3236,0,-.336E-5,0
COSMOS 2522 (752),2017-055A,2026-06-24T03:53:00.968064,2.13101107,.00084097,64.0776,191.6387,235.5259,124.4452,0,U,42939,999,6812,0,.104E-5,0
QZS-4 (QZSS/PRN 195),2017-062A,2026-06-27T07:59:15.490752,1.00296711,.0746715,40.1035,343.3559,268.2655,281.5675,0,U,42965,999,3190,0,-.35E-5,0
BEIDOU-3 M1 (C19),2017-069A,2026-06-26T06:16:16.154976,1.86231403,.0009932,56.7000,62.7851,326.5159,33.4640,0,U,43001,999,5877,0,-.86E-6,0
BEIDOU-3 M2 (C20),2017-069B,2026-06-26T04:48:06.055776,1.86230727,.0008922,56.6993,62.8231,352.8542,7.1754,0,U,43002,999,5876,0,-.86E-6,0
GSAT0215 (GALILEO 19),2017-079A,2026-06-26T09:37:16.356864,1.70474651,.00035075,55.0715,221.2530,265.2827,94.7697,0,U,43055,999,5314,0,.63E-6,0
